[
    {
        "Altitude(m)": 607895.8560022992,
        "Argument of Periapsis(deg)": 0.0,
        "Eccentricity": 0.0,
        "Inclination(deg)": 60.0,
        "Latitude(deg)": 40.99844419314607,
        "Longitude(deg)": 75.08861605086467,
        "Mean Anomaly(deg)": 130.9091,
        "RAAN(deg)": 25.0,
        "Satellite Name": "Test1 118",
        "Satellite Number": 118,
        "Semi-Major Axis(m)": 6980739.136638005,
        "Time(s)": 0
    },
    {
        "Altitude(m)": 607795.1688586705,
        "Argument of Periapsis(deg)": 0.00010418945913296404,
        "Eccentricity": 0.0,
        "Inclination(deg)": 60.0,
        "Latitude(deg)": 40.53076875499424,
        "Longitude(deg)": 75.58521114016052,
        "Mean Anomaly(deg)": 131.5292061454618,
        "RAAN(deg)": 24.99957995086026,
        "Satellite Name": "Test1 118",
        "Satellite Number": 118,
        "Semi-Major Axis(m)": 6980739.136638005,
        "Time(s)": 10
    }
]